OBJECT_NAME,OBJECT_ID,EPOCH,MEAN_MOTION,ECCENTRICITY,INCLINATION,RA_OF_ASC_NODE,ARG_OF_PERICENTER,MEAN_ANOMALY,EPHEMERIS_TYPE,CLASSIFICATION_TYPE,NORAD_CAT_ID,ELEMENT_SET_NO,REV_AT_EPOCH,BSTAR,MEAN_MOTION_DOT,MEAN_MOTION_DDOT
ASTRA 1M,2008-057A,2026-07-08T20:37:45.793920,1.00273566,.00048304,0.3489,82.7231,39.2934,133.6294,0,U,33436,999,4595,0,.135E-5,0
EUTELSAT HOTBIRD 13C,2008-065A,2026-07-08T18:35:36.354912,1.00273348,.00034328,3.0025,78.9358,29.7022,46.6643,0,U,33459,999,4756,0,-.271E-5,0
EXPRESS-AM44,2009-007A,2026-07-08T22:31:06.979872,1.00271416,.00039331,3.5158,78.1359,23.2613,152.2499,0,U,33595,999,5250,0,-.78E-6,0
NSS-9,2009-008A,2026-07-08T19:42:05.192352,1.00269963,.00019872,1.3144,82.4509,15.0426,307.8663,0,U,33749,999,6373,0,.85E-6,0
TELSTAR 11N,2009-009A,2026-07-08T18:39:13.508352,1.00272919,.0002365,0.0273,77.0563,30.3629,61.5641,0,U,34111,999,4646,0,-.236E-5,0
WGS F2 (USA 204),2009-017A,2026-07-08T20:20:38.704416,1.00270804,.00006766,0.0168,29.2801,191.0688,69.1038,0,U,34713,999,4583,0,.82E-6,0
SES-7 (PROTOSTAR 2),2009-027A,2026-07-08T19:20:52.225728,1.00269918,.00013402,0.0145,46.6505,147.4638,131.0985,0,U,34941,999,6284,0,-.33E-5,0
MEASAT-3A,2009-032A,2026-07-08T19:35:28.326048,1.00270710,.00028296,0.0222,16.3197,85.8941,278.4182,0,U,35362,999,824,0,-.96E-6,0
GOES 14,2009-033A,2026-07-08T21:09:22.082976,1.00101502,.00019672,1.7425,82.7772,36.9440,253.4238,0,U,35491,999,680,0,-.338E-5,0
FM-5,2009-034A,2026-07-08T13:17:22.634880,1.00269466,.00009618,0.0383,269.8296,64.9764,64.8737,0,U,35493,999,4685,0,-.185E-5,0
TERRESTAR-1,2009-035A,2026-07-08T13:10:23.304576,1.00272415,.0002605,5.1917,48.7860,50.9542,273.3452,0,U,35496,999,6234,0,-.46E-6,0
ASIASAT 5,2009-042A,2026-07-08T21:35:21.797376,1.00267657,.00015988,0.0263,275.1162,176.5199,259.5175,0,U,35696,999,6192,0,-.292E-5,0
JCSAT-12 (JCSAT-RA),2009-044A,2026-07-08T19:27:36.580320,1.00271527,.0001283,0.0451,275.4378,275.3171,159.9477,0,U,35755,999,6182,0,-.313E-5,0
OPTUS D3,2009-044B,2026-07-08T17:51:48.053952,1.00269569,.00031235,0.8853,268.3904,206.4000,235.9823,0,U,35756,999,6178,0,-.131E-5,0
NIMIQ 5,2009-050A,2026-07-08T20:11:54.832704,1.00270014,.00026353,0.0553,261.5054,203.6984,51.8604,0,U,35873,999,6156,0,-.242E-5,0
AMAZONAS 2,2009-054A,2026-07-08T20:12:02.320992,1.00272228,.00032359,1.8683,82.7752,26.0857,48.9444,0,U,35942,999,6140,0,-.246E-5,0
COMSATBW-1,2009-054B,2026-07-08T21:54:26.594784,1.00276210,.00026948,0.0607,192.7784,285.5261,200.2271,0,U,35943,999,6152,0,.38E-6,0
NSS-12,2009-058A,2026-07-08T20:12:38.741184,1.00273399,.00042329,0.0499,281.5759,151.6364,213.7554,0,U,36032,999,6113,0,.86E-6,0
THOR 6,2009-058B,2026-07-08T20:32:23.807904,1.00271169,.00022333,0.0383,234.6558,265.2893,94.1022,0,U,36033,999,6122,0,.4E-7,0
INTELSAT 14 (IS-14),2009-064A,2026-07-08T18:37:06.211776,1.00270382,.00022736,0.0055,57.8007,59.8447,43.3646,0,U,36097,999,6082,0,-.259E-5,0
EUTELSAT 36B,2009-065A,2026-07-08T20:20:38.704416,1.00271403,.00058164,0.5424,81.2856,27.4342,173.7132,0,U,36101,999,6092,0,.126E-5,0
INTELSAT 15 (IS-15),2009-067A,2026-07-08T19:14:15.360288,1.00270832,.00021965,0.0166,34.0807,79.9446,186.4370,0,U,36106,999,4144,0,-.17E-5,0
WGS F3 (USA 211),2009-068A,2026-07-08T21:38:11.818752,1.00269697,.00004855,0.3028,85.6334,84.0986,311.6853,0,U,36108,999,4681,0,.78E-6,0
DIRECTV 12,2009-075A,2026-07-08T21:45:56.077056,1.00270284,.00002008,0.0136,198.3798,1.8902,310.3337,0,U,36131,999,4677,0,-.89E-6,0
BEIDOU-2 G1,2010-001A,2026-07-09T14:19:13.662624,1.00267691,.0001499,4.3430,60.3270,290.1066,292.3274,0,U,36287,999,6039,0,-.272E-5,0
SDO,2010-005A,2026-07-08T07:06:32.895648,1.00269565,.00017012,34.6924,86.0231,55.0520,149.4946,0,U,36395,999,6027,0,-.82E-6,0
INTELSAT 16 (IS-16),2010-006A,2026-07-08T20:10:54.928128,1.00272089,.0002289,0.0098,336.1128,152.9219,24.2785,0,U,36397,999,5987,0,-.23E-5,0
EWS-G2 (GOES 15),2010-008A,2026-07-08T15:42:43.388640,1.00268187,.00052667,1.3332,82.5528,51.8387,91.2884,0,U,36411,999,5985,0,.35E-6,0
ECHOSTAR 14,2010-010A,2026-07-08T14:50:40.311168,1.00274827,.00019344,0.0508,260.7930,193.9759,295.5646,0,U,36499,999,4676,0,.15E-6,0
SES-1,2010-016A,2026-07-08T21:46:26.030208,1.00270649,.00025377,0.0287,302.6869,163.0095,46.7589,0,U,36516,999,5925,0,-.1E-5,0
ASTRA 3B,2010-021A,2026-07-08T19:59:38.611392,1.00274084,.00042749,1.5243,83.2931,20.1812,146.7148,0,U,36581,999,5908,0,.15E-5,0
COMSATBW-2,2010-021B,2026-07-08T20:36:08.448768,1.00271864,.00024118,0.0433,136.8545,347.7143,124.4754,0,U,36582,999,5917,0,.103E-5,0
