ASTRA 1M                
1 33436U 08057A   26189.85955780  .00000135  00000+0  00000+0 0  9999
2 33436   0.3489  82.7231 0004830  39.2934 133.6294  1.00273566 45954
EUTELSAT HOTBIRD 13C    
1 33459U 08065A   26189.77472633 -.00000271  00000+0  00000+0 0  9997
2 33459   3.0025  78.9358 0003432  29.7022  46.6643  1.00273348 47569
EXPRESS-AM44            
1 33595U 09007A   26189.93827523 -.00000078  00000+0  00000+0 0  9990
2 33595   3.5158  78.1359 0003933  23.2613 152.2499  1.00271416 52503
NSS-9                   
1 33749U 09008A   26189.82089343  .00000085  00000+0  00000+0 0  9997
2 33749   1.3144  82.4509 0001987  15.0426 307.8663  1.00269963 63730
TELSTAR 11N             
1 34111U 09009A   26189.77723968 -.00000236  00000+0  00000+0 0  9993
2 34111   0.0273  77.0563 0002365  30.3629  61.5641  1.00272919 46465
WGS F2 (USA 204)        
1 34713U 09017A   26189.84767019  .00000082  00000+0  00000+0 0  9991
2 34713   0.0168  29.2801 0000676 191.0688  69.1038  1.00270804 45838
SES-7 (PROTOSTAR 2)     
1 34941U 09027A   26189.80616002 -.00000330  00000+0  00000+0 0  9993
2 34941   0.0145  46.6505 0001340 147.4638 131.0985  1.00269918 62843
MEASAT-3A               
1 35362U 09032A   26189.81630007 -.00000096  00000+0  00000+0 0  9998
2 35362   0.0222  16.3197 0002829  85.8941 278.4182  1.00270710  8244
GOES 14                 
1 35491U 09033A   26189.88150559 -.00000338  00000+0  00000+0 0  9997
2 35491   1.7425  82.7772 0001967  36.9440 253.4238  1.00101502  6806
FM-5                    
1 35493U 09034A   26189.55373420 -.00000185  00000+0  00000+0 0  9998
2 35493   0.0383 269.8296 0000961  64.9764  64.8737  1.00269466 46856
TERRESTAR-1             
1 35496U 09035A   26189.54888084 -.00000046  00000+0  00000+0 0  9994
2 35496   5.1917  48.7860 0002605  50.9542 273.3452  1.00272415 62346
ASIASAT 5               
1 35696U 09042A   26189.89955784 -.00000292  00000+0  00000+0 0  9997
2 35696   0.0263 275.1162 0001598 176.5199 259.5175  1.00267657 61923
JCSAT-12 (JCSAT-RA)     
1 35755U 09044A   26189.81084005 -.00000313  00000+0  00000+0 0  9990
2 35755   0.0451 275.4378 0001283 275.3171 159.9477  1.00271527 61827
OPTUS D3                
1 35756U 09044B   26189.74430618 -.00000131  00000+0  00000+0 0  9996
2 35756   0.8853 268.3904 0003123 206.4000 235.9823  1.00269569 61787
NIMIQ 5                 
1 35873U 09050A   26189.84160686 -.00000242  00000+0  00000+0 0  9992
2 35873   0.0553 261.5054 0002635 203.6984  51.8604  1.00270014 61569
AMAZONAS 2              
1 35942U 09054A   26189.84169353 -.00000246  00000+0  00000+0 0  9997
2 35942   1.8683  82.7752 0003235  26.0857  48.9444  1.00272228 61401
COMSATBW-1              
1 35943U 09054B   26189.91280781  .00000038  00000+0  00000+0 0  9993
2 35943   0.0607 192.7784 0002694 285.5261 200.2271  1.00276210 61524
NSS-12                  
1 36032U 09058A   26189.84211506  .00000086  00000+0  00000+0 0  9991
2 36032   0.0499 281.5759 0004232 151.6364 213.7554  1.00273399 61134
THOR 6                  
1 36033U 09058B   26189.85583111  .00000004  00000+0  00000+0 0  9997
2 36033   0.0383 234.6558 0002233 265.2893  94.1022  1.00271169 61225
INTELSAT 14 (IS-14)     
1 36097U 09064A   26189.77576634 -.00000259  00000+0  00000+0 0  9990
2 36097   0.0055  57.8007 0002273  59.8447  43.3646  1.00270382 60820
EUTELSAT 36B            
1 36101U 09065A   26189.84767019  .00000126  00000+0  00000+0 0  9996
2 36101   0.5424  81.2856 0005816  27.4342 173.7132  1.00271403 60929
INTELSAT 15 (IS-15)     
1 36106U 09067A   26189.80156667 -.00000170  00000+0  00000+0 0  9990
2 36106   0.0166  34.0807 0002196  79.9446 186.4370  1.00270832 41445
WGS F3 (USA 211)        
1 36108U 09068A   26189.90152568  .00000078  00000+0  00000+0 0  9996
2 36108   0.3028  85.6334 0000485  84.0986 311.6853  1.00269697 46810
DIRECTV 12              
1 36131U 09075A   26189.90689904 -.00000089  00000+0  00000+0 0  9992
2 36131   0.0136 198.3798 0000200   1.8902 310.3337  1.00270284 46771
BEIDOU-2 G1             
1 36287U 10001A   26190.59668591 -.00000272  00000+0  00000+0 0  9995
2 36287   4.3430  60.3270 0001499 290.1066 292.3274  1.00267691 60396
SDO                     
1 36395U 10005A   26189.29621407 -.00000082  00000+0  00000+0 0  9998
2 36395  34.6924  86.0231 0001701  55.0520 149.4946  1.00269565 60278
INTELSAT 16 (IS-16)     
1 36397U 10006A   26189.84091352 -.00000230  00000+0  00000+0 0  9997
2 36397   0.0098 336.1128 0002289 152.9219  24.2785  1.00272089 59877
EWS-G2 (GOES 15)        
1 36411U 10008A   26189.65466885  .00000035  00000+0  00000+0 0  9994
2 36411   1.3332  82.5528 0005266  51.8387  91.2884  1.00268187 59852
ECHOSTAR 14             
1 36499U 10010A   26189.61852212  .00000015  00000+0  00000+0 0  9990
2 36499   0.0508 260.7930 0001934 193.9759 295.5646  1.00274827 46764
SES-1                   
1 36516U 10016A   26189.90724572 -.00000100  00000+0  00000+0 0  9991
2 36516   0.0287 302.6869 0002537 163.0095  46.7589  1.00270649 59254
ASTRA 3B                
1 36581U 10021A   26189.83308578  .00000150  00000+0  00000+0 0  9999
2 36581   1.5243  83.2931 0004274  20.1812 146.7148  1.00274084 59086
COMSATBW-2              
1 36582U 10021B   26189.85843112  .00000103  00000+0  00000+0 0  9998
2 36582   0.0433 136.8545 0002411 347.7143 124.4754  1.00271864 59173
